{"spkid": "50831939", "covariance": {"epoch": "2458699.5", "data": [["1.731770789946518E-16", "-2.698069138746747E-16", "-2.628173056282611E-14", "-1.707443330624446E-13", "1.629368726190108E-13", "-1.124752434627882E-15"], ["-2.698069138746747E-16", "4.206371394044842E-16", "3.983346959297794E-14", "2.67925639119983E-13", "-2.568183248458936E-13", "1.582534161675417E-15"], ["-2.628173056282611E-14", "3.983346959297794E-14", "1.289199434441349E-11", "8.576075345551882E-11", "-7.470805316007738E-11", "-1.018042439011929E-12"], ["-1.707443330624446E-13", "2.67925639119983E-13", "8.576075345551882E-11", "2.122090924241431E-9", "-2.035241975991657E-9", "-2.992495572392241E-11"], ["1.629368726190108E-13", "-2.568183248458936E-13", "-7.470805316007738E-11", "-2.035241975991657E-9", "1.960489793579254E-9", "2.853134498342015E-11"], ["-1.124752434627882E-15", "1.582534161675417E-15", "-1.018042439011929E-12", "-2.992495572392241E-11", "2.853134498342015E-11", "1.002864548414029E-12"]], "elements": [{"label": "e", "title": "eccentricity", "value": ".4912343609030368", "units": null, "name": "e", "sigma": 1.31596762496139e-08}, {"label": "q", "value": ".8209124835804357", "title": "perihelion distance", "units": "au", "sigma": 2.05094402508816e-08, "name": "q"}, {"name": "tp", "sigma": 3.59054234683474e-06, "units": "TDB", "title": "time of perihelion passage", "value": "2458480.186029300583", "label": "tp"}, {"label": "node", "units": "deg", "title": "longitude of the ascending node", "value": "255.4138935340254", "name": "om", "sigma": 4.6066158123306e-05}, {"label": "peri", "units": "deg", "value": "218.9223751188405", "title": "argument of perihelion", "sigma": 4.42774185514383e-05, "name": "w"}, {"label": "i", "name": "i", "sigma": 1.00143124996878e-06, "units": "deg", "title": "inclination", "value": "1.611196086649837"}], "labels": ["e", "q", "tp", "node", "peri", "i"]}, "elements": [{"label": "e", "name": "e", "sigma": "1.2655E-8", "value": ".4916193380038943", "title": "eccentricity", "units": null}, {"label": "a", "units": "au", "title": "semi-major axis", "value": "1.614394716326912", "sigma": "3.7323E-9", "name": "a"}, {"label": "q", "title": "perihelion distance", "value": ".8207270546092907", "units": "au", "name": "q", "sigma": "2.0934E-8"}, {"units": "deg", "value": "1.615426379789706", "title": "inclination; angle with respect to x-y ecliptic plane", "sigma": "1.0114E-6", "name": "i", "label": "i"}, {"sigma": "4.5313E-5", "name": "om", "title": "longitude of the ascending node", "value": "254.2809676119285", "units": "deg", "label": "node"}, {"label": "peri", "name": "w", "sigma": "4.3528E-5", "title": "argument of perihelion", "value": "220.0842641119864", "units": "deg"}, {"sigma": "1.9344E-6", "name": "ma", "units": "deg", "title": "mean anomaly", "value": "227.9236228158045", "label": "M"}, {"title": "time of perihelion passage", "value": "2461475.375267635103", "units": "TDB", "sigma": "4.8747E-6", "name": "tp", "label": "tp"}, {"label": "period", "name": "per", "sigma": "2.5982E-6", "units": "d", "value": "749.2263072194415", "title": "sidereal orbital period"}, {"label": "n", "name": "n", "sigma": "1.6663E-9", "title": "mean motion", "value": ".4804956747128198", "units": "deg/d"}, {"sigma": "5.5671E-9", "name": "ad", "title": "aphelion distance", "value": "2.408062378044533", "units": "au", "label": "Q"}], "epoch": "2461200.5"}